[{"OBJECT_NAME":"ICEYE-X64","OBJECT_ID":"2026-004L","EPOCH":"2026-03-09T22:08:51.177984","MEAN_MOTION":14.87676909,"ECCENTRICITY":0.00074629,"INCLINATION":97.8018,"RA_OF_ASC_NODE":69.1111,"ARG_OF_PERICENTER":100.9469,"MEAN_ANOMALY":259.2588,"EPHEMERIS_TYPE":0,"CLASSIFICATION_TYPE":"U","NORAD_CAT_ID":67373,"ELEMENT_SET_NO":999,"REV_AT_EPOCH":853,"BSTAR":0.00035385661,"MEAN_MOTION_DOT":3.169e-5,"MEAN_MOTION_DDOT":0},{"OBJECT_NAME":"CLOUDSAT","OBJECT_ID":"2006-016A","EPOCH":"2026-03-09T23:36:20.904192","MEAN_MOTION":14.86172924,"ECCENTRICITY":0.00040939,"INCLINATION":98.4053,"RA_OF_ASC_NODE":100.731,"ARG_OF_PERICENTER":300.1653,"MEAN_ANOMALY":59.9155,"EPHEMERIS_TYPE":0,"CLASSIFICATION_TYPE":"U","NORAD_CAT_ID":29107,"ELEMENT_SET_NO":999,"REV_AT_EPOCH":5977,"BSTAR":0.00018027115,"MEAN_MOTION_DOT":1.521e-5,"MEAN_MOTION_DDOT":0}]
